[{"OBJECT_NAME":"STARLINK-6056","OBJECT_ID":"2023-078AY","EPOCH":"2026-03-09T22:48:38.550816","MEAN_MOTION":14.98319506,"ECCENTRICITY":0.00026172,"INCLINATION":70.0016,"RA_OF_ASC_NODE":343.6264,"ARG_OF_PERICENTER":258.7563,"MEAN_ANOMALY":101.3302,"EPHEMERIS_TYPE":0,"CLASSIFICATION_TYPE":"U","NORAD_CAT_ID":56813,"ELEMENT_SET_NO":999,"REV_AT_EPOCH":15272,"BSTAR":7.2557614e-5,"MEAN_MOTION_DOT":7.73e-6,"MEAN_MOTION_DDOT":0},{"OBJECT_NAME":"BRO-12","OBJECT_ID":"2024-043L","EPOCH":"2026-03-09T22:37:32.158848","MEAN_MOTION":14.96535251,"ECCENTRICITY":0.00077366,"INCLINATION":97.831,"RA_OF_ASC_NODE":199.8995,"ARG_OF_PERICENTER":330.9773,"MEAN_ANOMALY":29.1017,"EPHEMERIS_TYPE":0,"CLASSIFICATION_TYPE":"U","NORAD_CAT_ID":59108,"ELEMENT_SET_NO":999,"REV_AT_EPOCH":10979,"BSTAR":0.00015413906,"MEAN_MOTION_DOT":1.694e-5,"MEAN_MOTION_DDOT":0}]
